{"result":"*******************************************************************************
 Revised: April 12, 2021               Jupiter                              599
 
 PHYSICAL DATA (revised 2025-Jan-30):
  Mass x 10^26 (kg)     = 18.9819           Density (g/cm^3)  = 1.3262 +- .0003
  Equat. radius (1 bar) = 71492+-4 km       Polar radius (km)     = 66854+-10
  Vol. Mean Radius (km) = 69911+-6          Flattening            = 0.06487
  Geometric Albedo      = 0.52              Rocky core mass (Mc/M)= 0.0261
  Sid. rot. period (III)= 9h 55m 29.711 s   Sid. rot. rate (rad/s)= 0.00017585
  Mean solar day, hrs   = ~9.9259         
  GM (km^3/s^2)         = 126686531.900     GM 1-sigma (km^3/s^2) =  +- 1.2732
  Equ. grav, ge (m/s^2) = 24.79             Pol. grav, gp (m/s^2) =  28.34
  Vis. magnitude V(1,0) = -9.40
  Vis. mag. (opposition)= -2.70             Obliquity to orbit    =  3.13 deg
  Sidereal orbit period = 11.861982204 y    Sidereal orbit period = 4332.589 d
  Mean daily motion     = 0.0831294 deg/d   Mean orbit speed, km/s= 13.0697
  Atmos. temp. (1 bar)  = 165+-5 K          Escape speed, km/s    =  59.5           
  A_roche(ice)/Rp       =  2.76             Hill's sphere rad. Rp = 740
                                 Perihelion   Aphelion     Mean
  Solar Constant (W/m^2)         56           46           51
  Maximum Planetary IR (W/m^2)   13.7         13.4         13.6
  Minimum Planetary IR (W/m^2)   13.7         13.4         13.6
*******************************************************************************


*******************************************************************************
Ephemeris / API_USER Sat Sep 20 12:30:36 2025 Pasadena, USA      / Horizons
*******************************************************************************
Target body name: Jupiter (599)                   {source: jup365_merged}
Center body name: Earth (399)                     {source: DE441}
Center-site name: BODY CENTER
*******************************************************************************
Start time      : A.D. 2025-Jan-01 00:00:00.0000 TDB
Stop  time      : A.D. 2026-Jan-01 00:00:00.0000 TDB
Step-size       : 60 minutes
*******************************************************************************
Center geodetic : 0.0, 0.0, 0.0                   {E-lon(deg),Lat(deg),Alt(km)}
Center cylindric: 0.0, 0.0, 0.0                   {E-lon(deg),Dxy(km),Dz(km)}
Center radii    : 6378.137, 6378.137, 6356.752 km {Equator_a, b, pole_c}
Output units    : KM-S
Calendar mode   : Mixed Julian/Gregorian
Output type     : GEOMETRIC cartesian states
Output format   : 3 (position, velocity, LT, range, range-rate)
EOP file        : eop.250919.p251216
EOP coverage    : DATA-BASED 1962-JAN-20 TO 2025-SEP-19. PREDICTS-> 2025-DEC-15
Reference frame : Ecliptic of J2000.0
*******************************************************************************
            JDTDB,            Calendar Date (TDB),                      X,                      Y,                      Z,                     VX,                     VY,                     VZ,                     LT,                     RG,                     RR,
**************************************************************************************************************************************************************************************************************************************************************************
$$SOE
2460797.500000000, A.D. 2025-May-02 00:00:00.0000,  1.337193020396670E+08,  8.661097586527278E+08, -3.654567256547570E+06, -3.249367145281061E+01,  2.338837100599950E+01,  2.903773141140089E-01,  2.923286005365750E+03,  8.763790969855994E+08,  1.815516156331583E+01,
2460797.541666667, A.D. 2025-May-02 01:00:00.0000,  1.336022967699700E+08,  8.661939299918964E+08, -3.653521906492054E+06, -3.250925438497697E+01,  2.337348572325200E+01,  2.903728400741450E-01,  2.923503946928351E+03,  8.764444342223519E+08,  1.814330595264472E+01,
2460797.583333333, A.D. 2025-May-02 02:00:00.0000,  1.334852354191480E+08,  8.662780477615602E+08, -3.652476571240664E+06, -3.252482810496308E+01,  2.335861011394102E+01,  2.903690808111623E-01,  2.923721746219356E+03,  8.765097288071531E+08,  1.813146590709647E+01,
2460797.625000000, A.D. 2025-May-02 03:00:00.0000,  1.333681180153102E+08,  8.663621119956861E+08, -3.651431248322904E+06, -3.254039540796308E+01,  2.334374363211609E+01,  2.903659771527547E-01,  2.923939403420272E+03,  8.765749807944170E+08,  1.811964046039153E+01,
2460797.666666667, A.D. 2025-May-02 04:00:00.0000,  1.332509445766819E+08,  8.664461227255340E+08, -3.650385935504556E+06, -3.255595897911628E+01,  2.332888532268397E+01,  2.903634570204883E-01,  2.924156918698664E+03,  8.766401902343783E+08,  1.810782826059734E+01,
2460797.708333333, A.D. 2025-May-02 05:00:00.0000,  1.331337151121148E+08,  8.665300799782180E+08, -3.649340630831897E+06, -3.257152133066224E+01,  2.331403384173702E+01,  2.903614370419909E-01,  2.924374292203684E+03,  8.767053571717527E+08,  1.809602759960418E+01,
2460797.750000000, A.D. 2025-May-02 06:00:00.0000,  1.330164296218167E+08,  8.666139837753592E+08, -3.648295332668662E+06, -3.258708474305750E+01,  2.329918748744479E+01,  2.903598244794452E-01,  2.924591524062033E+03,  8.767704816445229E+08,  1.808423645237927E+01,
2460797.791666667, A.D. 2025-May-02 07:00:00.0000,  1.328990880982837E+08,  8.666978341318674E+08, -3.647250039726436E+06, -3.260265121196380E+01,  2.328434424064126E+01,  2.903585194174578E-01,  2.924808614374422E+03,  8.768355636828820E+08,  1.807245252485884E+01,
2460797.833333333, A.D. 2025-May-02 08:00:00.0000,  1.327816905274095E+08,  8.667816310548843E+08, -3.646204751085460E+06, -3.261822240279356E+01,  2.326950181379361E+01,  2.903574171410046E-01,  2.925025563212674E+03,  8.769006033083620E+08,  1.806067330893322E+01,
2460797.875000000, A.D. 2025-May-02 09:00:00.0000,  1.326642368897431E+08,  8.668653745429165E+08, -3.645159466208160E+06, -3.263379961418176E+01,  2.325465770667377E+01,  2.903564106259182E-01,  2.925242370617508E+03,  8.769656005331697E+08,  1.804889614266850E+01,
2460797.916666667, A.D. 2025-May-02 10:00:00.0000,  1.325467271618600E+08,  8.669490645851766E+08, -3.644114184942365E+06, -3.264938375136945E+01,  2.323980926680201E+01,  2.903553930605760E-01,  2.925459036597068E+03,  8.770305553597469E+08,  1.803711827371962E+01,
2460797.958333333, A.D. 2025-May-02 11:00:00.0000,  1.324291613178108E+08,  8.670327011611491E+08, -3.643068907516479E+06, -3.266497531005740E+01,  2.322495375261441E+01,  2.903542603190239E-01,  2.925675561126230E+03,  8.770954677805617E+08,  1.802533692383832E+01,
2460798.000000000, A.D. 2025-May-02 12:00:00.0000,  1.323115393306086E+08,  8.671162842403845E+08, -3.642023634525418E+06, -3.268057437085079E+01,  2.321008839732954E+01,  2.903529133120824E-01,  2.925891944146670E+03,  8.771603377781287E+08,  1.801354935246923E+01,
2460798.041666667, A.D. 2025-May-02 13:00:00.0000,  1.321938611737180E+08,  8.671998137825215E+08, -3.640978366908371E+06, -3.269618060399891E+01,  2.319521047164534E+01,  2.903512601535994E-01,  2.926108185567688E+03,  8.772251653252571E+08,  1.800175291764363E+01,
2460798.083333333, A.D. 2025-May-02 14:00:00.0000,  1.320761268225090E+08,  8.672832897375314E+08, -3.639933105919421E+06, -3.271179328376805E+01,  2.318031734366090E+01,  2.903492180928904E-01,  2.926324285267735E+03,  8.772899503855072E+08,  1.798994513269537E+01,
2460798.125000000, A.D. 2025-May-02 15:00:00.0000,  1.319583362556436E+08,  8.673667120461707E+08, -3.638887853091598E+06, -3.272741131149823E+01,  2.316540653474942E+01,  2.903467151795258E-01,  2.926540243096598E+03,  8.773546929138464E+08,  1.797812371769335E+01,
2460798.166666667, A.D. 2025-May-02 16:00:00.0000,  1.318404894563655E+08,  8.674500806406252E+08, -3.637842610195458E+06, -3.274303324620639E+01,  2.315047577045715E+01,  2.903436916414517E-01,  2.926756058878152E+03,  8.774193928574739E+08,  1.796628664485605E+01,
2460798.208333333, A.D. 2025-May-02 17:00:00.0000,  1.317225864136676E+08,  8.675333954453299E+08, -3.636797379192829E+06, -3.275865734152021E+01,  2.313552302581039E+01,  2.903401009696776E-01,  2.926971732413639E+03,  8.774840501568029E+08,  1.795443217752754E+01,
2460798.250000000, A.D. 2025-May-02 18:00:00.0000,  1.316046271233168E+08,  8.676166563779384E+08, -3.635752162188530E+06, -3.277428158775999E+01,  2.312054656462187E+01,  2.903359107106702E-01,  2.927187263485357E+03,  8.775486647465688E+08,  1.794255890249459E+01,
2460798.291666667, A.D. 2025-May-02 19:00:00.0000,  1.314866115887201E+08,  8.676998633504241E+08, -3.634706961377382E+06, -3.278990375811340E+01,  2.310554497245473E+01,  2.903311029696614E-01,  2.927402651860707E+03,  8.776132365570399E+08,  1.793066575546989E+01,
2460798.333333333, A.D. 2025-May-02 20:00:00.0000,  1.313685398216183E+08,  8.677830162702883E+08, -3.633661778992474E+06, -3.280552145803956E+01,  2.309051718280557E+01,  2.903256746240697E-01,  2.927617897296503E+03,  8.776777655153102E+08,  1.791875203944064E+01,
2460798.375000000, A.D. 2025-May-02 21:00:00.0000,  1.312504118425966E+08,  8.678661150418484E+08, -3.632616617251515E+06, -3.282113217724098E+01,  2.307546249583179E+01,  2.903196372373138E-01,  2.927832999543447E+03,  8.777422515466428E+08,  1.790681743531685E+01,
2460798.416666667, A.D. 2025-May-02 22:00:00.0000,  1.311322276814052E+08,  8.679491595675790E+08, -3.631571478304744E+06, -3.283673334368154E+01,  2.306038058865591E+01,  2.903130166528367E-01,  2.928047958350697E+03,  8.778066945758369E+08,  1.789486200400243E+01,
2460798.458333333, A.D. 2025-May-02 23:00:00.0000,  1.310139873770813E+08,  8.680321497494733E+08, -3.630526364184618E+06, -3.285232237910512E+01,  2.304527151610244E+01,  2.903058522427244E-01,  2.928262773470388E+03,  8.778710945285848E+08,  1.788288617884023E+01,
